LANDSAT 9               
1 49260U 21088A   23199.61300048  .00000521  00000+0  12561-3 0  9991
2 49260  98.2286 269.1259 0001221 101.3171 258.8164 14.57112906 95961
